{
    "links": {
        "self": "http://www.neowsapp.com/rest/v1/neo/3719244?api_key=iIulBulltgU6a56xZRHN4H3l9WmuAYTsLGpBGhQ2"
    },
    "id": "3719244",
    "neo_reference_id": "3719244",
    "name": "(2015 KK)",
    "designation": "2015 KK",
    "nasa_jpl_url": "http://ssd.jpl.nasa.gov/sbdb.cgi?sstr=3719244",
    "absolute_magnitude_h": 25.1,
    "estimated_diameter": {
        "kilometers": {
            "estimated_diameter_min": 0.0253837029,
            "estimated_diameter_max": 0.0567596853
        },
        "meters": {
            "estimated_diameter_min": 25.3837029364,
            "estimated_diameter_max": 56.7596852866
        },
        "miles": {
            "estimated_diameter_min": 0.0157726969,
            "estimated_diameter_max": 0.0352688224
        },
        "feet": {
            "estimated_diameter_min": 83.279867942,
            "estimated_diameter_max": 186.2194458756
        }
    },
    "is_potentially_hazardous_asteroid": false,
    "close_approach_data": [
        {
            "close_approach_date": "2009-10-27",
            "close_approach_date_full": "2009-Oct-27 10:55",
            "epoch_date_close_approach": 1256640900000,
            "relative_velocity": {
                "kilometers_per_second": "9.2194751777",
                "kilometers_per_hour": "33190.110639889",
                "miles_per_hour": "20623.0440251021"
            },
            "miss_distance": {
                "astronomical": "1.576431283",
                "lunar": "613.231769087",
                "kilometers": "235830762.13816721",
                "miles": "146538440.514879098"
            },
            "orbiting_body": "Juptr"
        },
        {
            "close_approach_date": "2015-05-15",
            "close_approach_date_full": "2015-May-15 17:05",
            "epoch_date_close_approach": 1431709500000,
            "relative_velocity": {
                "kilometers_per_second": "24.4697143353",
                "kilometers_per_hour": "88090.9716070886",
                "miles_per_hour": "54736.3039966379"
            },
            "miss_distance": {
                "astronomical": "0.0140534028",
                "lunar": "5.4667736892",
                "kilometers": "2102359.125132036",
                "miles": "1306345.3843166568"
            },
            "orbiting_body": "Earth"
        },
        {
            "close_approach_date": "2130-05-27",
            "close_approach_date_full": "2130-May-27 10:39",
            "epoch_date_close_approach": 5061782340000,
            "relative_velocity": {
                "kilometers_per_second": "31.7477361475",
                "kilometers_per_hour": "114291.8501310828",
                "miles_per_hour": "71016.5109883942"
            },
            "miss_distance": {
                "astronomical": "0.2633561718",
                "lunar": "102.4455508302",
                "kilometers": "39397522.352634066",
                "miles": "24480485.2147434708"
            },
            "orbiting_body": "Earth"
        }
    ],
    "orbital_data": {
        "orbit_id": "4",
        "orbit_determination_date": "2017-04-06 08:33:42",
        "first_observation_date": "2015-05-18",
        "last_observation_date": "2015-05-22",
        "data_arc_in_days": 4,
        "observations_used": 44,
        "orbit_uncertainty": "8",
        "minimum_orbit_intersection": ".00968339",
        "jupiter_tisserand_invariant": "2.867",
        "epoch_osculation": "2457161.5",
        "eccentricity": ".7861213434179134",
        "semi_major_axis": "2.555342099040476",
        "inclination": "16.40755094006546",
        "ascending_node_longitude": "56.6451567782952",
        "orbital_period": "1492.010920345879",
        "perihelion_distance": ".5465331352504263",
        "perihelion_argument": "85.42713508240965",
        "aphelion_distance": "4.564151062830526",
        "perihelion_time": "2457112.554576583169",
        "mean_anomaly": "11.8098012486225",
        "mean_motion": ".2412850972408062",
        "equinox": "J2000",
        "orbit_class": {
            "orbit_class_type": "APO",
            "orbit_class_description": "Near-Earth asteroid orbits which cross the Earth’s orbit similar to that of 1862 Apollo",
            "orbit_class_range": "a (semi-major axis) > 1.0 AU; q (perihelion) < 1.017 AU"
        }
    },
    "is_sentry_object": false
}